start=new Date('2021-10-03T00:00:00.000Z').valueOf();
sats=[{"MEAN_ELEMENT_THEORY":"SGP4","MEAN_MOTION":"15.06391047","REV_AT_EPOCH":"6525","ECCENTRICITY":"0.00017100","TIME_SYSTEM":"UTC","PERIOD":"95.593","FILE":"3141323","GP_ID":"186050631","OBJECT_ID":"2020-055AU","SEMIMAJOR_AXIS":"6925.376","MEAN_ANOMALY":"278.8407","EPHEMERIS_TYPE":"0","OBJECT_TYPE":"PAYLOAD","INCLINATION":"53.0529","NORAD_CAT_ID":"46069","REF_FRAME":"TEME","COUNTRY_CODE":"US","LAUNCH_DATE":"2020-08-07","BSTAR":"0.00002591200000","PERIAPSIS":"546.057","RA_OF_ASC_NODE":"165.8696","OBJECT_NAME":"STARLINK-1533","ELEMENT_SET_NO":"999","TLE_LINE1":"1 46069U 20055AU  21275.40638723  .00000104  00000-0  25912-4 0  9995","TLE_LINE2":"2 46069  53.0529 165.8696 0001710  81.2776 278.8407 15.06391047 65252","DECAY_DATE":null,"CENTER_NAME":"EARTH","CLASSIFICATION_TYPE":"U","MEAN_MOTION_DOT":"0.00000104","ARG_OF_PERICENTER":"81.2776","EPOCH":"2021-10-02T09:45:11.856672","APOAPSIS":"548.425","RCS_SIZE":"LARGE","SITE":"AFETR","MEAN_MOTION_DDOT":"0.0000000000000"},{"PERIAPSIS":"545.904","BSTAR":"0.00007956600000","CENTER_NAME":"EARTH","CLASSIFICATION_TYPE":"U","DECAY_DATE":null,"TLE_LINE2":"2 46070  53.0531 165.8023 0001904  69.5551 290.5642 15.06397077 65257","TLE_LINE1":"1 46070U 20055AV  21275.42113238  .00000904  00000-0  79566-4 0  9990","ELEMENT_SET_NO":"999","RA_OF_ASC_NODE":"165.8023","OBJECT_NAME":"STARLINK-1536","ARG_OF_PERICENTER":"69.5551","MEAN_MOTION_DOT":"0.00000904","MEAN_MOTION_DDOT":"0.0000000000000","SITE":"AFETR","RCS_SIZE":"LARGE","EPOCH":"2021-10-02T10:06:25.837632","APOAPSIS":"548.541","MEAN_MOTION":"15.06397077","MEAN_ELEMENT_THEORY":"SGP4","PERIOD":"95.592","REV_AT_EPOCH":"6525","ECCENTRICITY":"0.00019040","TIME_SYSTEM":"UTC","INCLINATION":"53.0531","OBJECT_TYPE":"PAYLOAD","NORAD_CAT_ID":"46070","MEAN_ANOMALY":"290.5642","EPHEMERIS_TYPE":"0","SEMIMAJOR_AXIS":"6925.358","FILE":"3141323","GP_ID":"186051382","OBJECT_ID":"2020-055AV","LAUNCH_DATE":"2020-08-07","COUNTRY_CODE":"US","REF_FRAME":"TEME"},{"PERIOD":"95.592","TIME_SYSTEM":"UTC","REV_AT_EPOCH":"6529","ECCENTRICITY":"0.00018360","MEAN_ELEMENT_THEORY":"SGP4","MEAN_MOTION":"15.06409796","COUNTRY_CODE":"US","LAUNCH_DATE":"2020-08-07","REF_FRAME":"TEME","EPHEMERIS_TYPE":"0","MEAN_ANOMALY":"281.2271","NORAD_CAT_ID":"46071","OBJECT_TYPE":"PAYLOAD","INCLINATION":"53.0545","FILE":"3141323","GP_ID":"186050130","OBJECT_ID":"2020-055AW","SEMIMAJOR_AXIS":"6925.319","TLE_LINE2":"2 46071  53.0545 164.5342 0001836  78.8924 281.2271 15.06409796 65295","DECAY_DATE":null,"TLE_LINE1":"1 46071U 20055AW  21275.70494420  .00005000  00000-0  35424-3 0  9993","CLASSIFICATION_TYPE":"U","CENTER_NAME":"EARTH","OBJECT_NAME":"STARLINK-1538","RA_OF_ASC_NODE":"164.5342","ELEMENT_SET_NO":"999","PERIAPSIS":"545.912","BSTAR":"0.00035424000000","RCS_SIZE":"LARGE","MEAN_MOTION_DDOT":"0.0000000000000","SITE":"AFETR","APOAPSIS":"548.455","EPOCH":"2021-10-02T16:55:07.178880","ARG_OF_PERICENTER":"78.8924","MEAN_MOTION_DOT":"0.00005000"},{"PERIOD":"95.592","TIME_SYSTEM":"UTC","REV_AT_EPOCH":"6528","ECCENTRICITY":"0.00017760","MEAN_MOTION":"15.06404508","MEAN_ELEMENT_THEORY":"SGP4","LAUNCH_DATE":"2020-08-07","COUNTRY_CODE":"US","REF_FRAME":"TEME","NORAD_CAT_ID":"46072","INCLINATION":"53.0529","OBJECT_TYPE":"PAYLOAD","EPHEMERIS_TYPE":"0","MEAN_ANOMALY":"289.7181","SEMIMAJOR_AXIS":"6925.335","FILE":"3141323","GP_ID":"186049881","OBJECT_ID":"2020-055AX","CLASSIFICATION_TYPE":"U","CENTER_NAME":"EARTH","TLE_LINE2":"2 46072  53.0529 164.4027 0001776  70.3999 289.7181 15.06404508 65287","DECAY_DATE":null,"TLE_LINE1":"1 46072U 20055AX  21275.72980147  .00000994  00000-0  85609-4 0  9990","ELEMENT_SET_NO":"999","OBJECT_NAME":"STARLINK-1539","RA_OF_ASC_NODE":"164.4027","PERIAPSIS":"545.970","BSTAR":"0.00008560900000","MEAN_MOTION_DDOT":"0.0000000000000","SITE":"AFETR","RCS_SIZE":"LARGE","APOAPSIS":"548.430","EPOCH":"2021-10-02T17:30:54.847008","ARG_OF_PERICENTER":"70.3999","MEAN_MOTION_DOT":"0.00000994"},{"MEAN_MOTION_DOT":"0.00003722","ARG_OF_PERICENTER":"77.4546","APOAPSIS":"548.281","EPOCH":"2021-10-02T17:53:30.290208","MEAN_MOTION_DDOT":"0.0000000000000","SITE":"AFETR","RCS_SIZE":"LARGE","BSTAR":"0.00026858000000","PERIAPSIS":"546.103","ELEMENT_SET_NO":"999","RA_OF_ASC_NODE":"164.3502","OBJECT_NAME":"STARLINK-1542","CENTER_NAME":"EARTH","CLASSIFICATION_TYPE":"U","TLE_LINE1":"1 46073U 20055AY  21275.74548947  .00003722  00000-0  26858-3 0  9993","TLE_LINE2":"2 46073  53.0546 164.3502 0001572  77.4546 282.6619 15.06407084 65295","DECAY_DATE":null,"SEMIMAJOR_AXIS":"6925.327","GP_ID":"186051132","OBJECT_ID":"2020-055AY","FILE":"3141323","OBJECT_TYPE":"PAYLOAD","INCLINATION":"53.0546","NORAD_CAT_ID":"46073","EPHEMERIS_TYPE":"0","MEAN_ANOMALY":"282.6619","REF_FRAME":"TEME","LAUNCH_DATE":"2020-08-07","COUNTRY_CODE":"US","MEAN_MOTION":"15.06407084","MEAN_ELEMENT_THEORY":"SGP4","REV_AT_EPOCH":"6529","ECCENTRICITY":"0.00015720","TIME_SYSTEM":"UTC","PERIOD":"95.592"},{"APOAPSIS":"548.522","EPOCH":"2021-10-02T17:32:16.662624","SITE":"AFETR","MEAN_MOTION_DDOT":"0.0000000000000","RCS_SIZE":"LARGE","MEAN_MOTION_DOT":"0.00000386","ARG_OF_PERICENTER":"77.5374","ELEMENT_SET_NO":"999","RA_OF_ASC_NODE":"164.4138","OBJECT_NAME":"STARLINK-1549","CENTER_NAME":"EARTH","CLASSIFICATION_TYPE":"U","TLE_LINE2":"2 46074  53.0528 164.4138 0001882  77.5374 282.5825 15.06398288 65288","DECAY_DATE":null,"TLE_LINE1":"1 46074U 20055AZ  21275.73074841  .00000386  00000-0  44853-4 0  9999","BSTAR":"0.00004485300000","PERIAPSIS":"545.915","REF_FRAME":"TEME","LAUNCH_DATE":"2020-08-07","COUNTRY_CODE":"US","SEMIMAJOR_AXIS":"6925.354","FILE":"3141323","GP_ID":"186050882","OBJECT_ID":"2020-055AZ","OBJECT_TYPE":"PAYLOAD","INCLINATION":"53.0528","NORAD_CAT_ID":"46074","EPHEMERIS_TYPE":"0","MEAN_ANOMALY":"282.5825","ECCENTRICITY":"0.00018820","REV_AT_EPOCH":"6528","TIME_SYSTEM":"UTC","PERIOD":"95.592","MEAN_MOTION":"15.06398288","MEAN_ELEMENT_THEORY":"SGP4"},{"MEAN_ELEMENT_THEORY":"SGP4","MEAN_MOTION":"15.06410676","REV_AT_EPOCH":"6524","ECCENTRICITY":"0.00018220","TIME_SYSTEM":"UTC","PERIOD":"95.591","GP_ID":"186049631","OBJECT_ID":"2020-055BA","FILE":"3141323","SEMIMAJOR_AXIS":"6925.316","MEAN_ANOMALY":"287.1945","EPHEMERIS_TYPE":"0","OBJECT_TYPE":"PAYLOAD","INCLINATION":"53.0547","NORAD_CAT_ID":"46075","REF_FRAME":"TEME","COUNTRY_CODE":"US","LAUNCH_DATE":"2020-08-07","BSTAR":"0.00013857000000","PERIAPSIS":"545.919","RA_OF_ASC_NODE":"165.7931","OBJECT_NAME":"STARLINK-1551","ELEMENT_SET_NO":"999","TLE_LINE2":"2 46075  53.0547 165.7931 0001822  72.9244 287.1945 15.06410676 65240","DECAY_DATE":null,"TLE_LINE1":"1 46075U 20055BA  21275.42480280  .00001784  00000-0  13857-3 0  9996","CENTER_NAME":"EARTH","CLASSIFICATION_TYPE":"U","MEAN_MOTION_DOT":"0.00001784","ARG_OF_PERICENTER":"72.9244","EPOCH":"2021-10-02T10:11:42.961920","APOAPSIS":"548.443","RCS_SIZE":"LARGE","MEAN_MOTION_DDOT":"0.0000000000000","SITE":"AFETR"},{"BSTAR":"0.00007566300000","PERIAPSIS":"545.877","RA_OF_ASC_NODE":"164.4852","OBJECT_NAME":"STARLINK-1552","ELEMENT_SET_NO":"999","TLE_LINE2":"2 46076  53.0540 164.4852 0001943  73.7608 286.3594 15.06397065 65279","DECAY_DATE":null,"TLE_LINE1":"1 46076U 20055BB  21275.71600665  .00000845  00000-0  75663-4 0  9991","CENTER_NAME":"EARTH","CLASSIFICATION_TYPE":"U","MEAN_MOTION_DOT":"0.00000845","ARG_OF_PERICENTER":"73.7608","APOAPSIS":"548.568","EPOCH":"2021-10-02T17:11:02.974560","RCS_SIZE":"LARGE","SITE":"AFETR","MEAN_MOTION_DDOT":"0.0000000000000","MEAN_ELEMENT_THEORY":"SGP4","MEAN_MOTION":"15.06397065","REV_AT_EPOCH":"6527","ECCENTRICITY":"0.00019430","TIME_SYSTEM":"UTC","PERIOD":"95.592","GP_ID":"186050381","FILE":"3141323","OBJECT_ID":"2020-055BB","SEMIMAJOR_AXIS":"6925.358","EPHEMERIS_TYPE":"0","MEAN_ANOMALY":"286.3594","OBJECT_TYPE":"PAYLOAD","INCLINATION":"53.0540","NORAD_CAT_ID":"46076","REF_FRAME":"TEME","COUNTRY_CODE":"US","LAUNCH_DATE":"2020-08-07"},{"PERIOD":"95.592","TIME_SYSTEM":"UTC","REV_AT_EPOCH":"6524","ECCENTRICITY":"0.00016920","MEAN_MOTION":"15.06402059","MEAN_ELEMENT_THEORY":"SGP4","LAUNCH_DATE":"2020-08-07","COUNTRY_CODE":"US","REF_FRAME":"TEME","NORAD_CAT_ID":"46077","OBJECT_TYPE":"PAYLOAD","INCLINATION":"53.0533","EPHEMERIS_TYPE":"0","MEAN_ANOMALY":"283.5172","SEMIMAJOR_AXIS":"6925.342","FILE":"3141323","GP_ID":"186050632","OBJECT_ID":"2020-055BC","CLASSIFICATION_TYPE":"U","CENTER_NAME":"EARTH","TLE_LINE2":"2 46077  53.0533 164.5611 0001692  76.6005 283.5172 15.06402059 65248","DECAY_DATE":null,"TLE_LINE1":"1 46077U 20055BC  21275.69756879  .00002151  00000-0  16325-3 0  9999","ELEMENT_SET_NO":"999","OBJECT_NAME":"STARLINK-1559","RA_OF_ASC_NODE":"164.5611","PERIAPSIS":"546.035","BSTAR":"0.00016325000000","SITE":"AFETR","MEAN_MOTION_DDOT":"0.0000000000000","RCS_SIZE":"LARGE","EPOCH":"2021-10-02T16:44:29.943456","APOAPSIS":"548.379","ARG_OF_PERICENTER":"76.6005","MEAN_MOTION_DOT":"0.00002151"},{"PERIAPSIS":"546.079","BSTAR":"-0.00098458000000","TLE_LINE2":"2 46078  53.0536 164.3646 0001669  72.9901 287.1270 15.06393072 65261","DECAY_DATE":null,"TLE_LINE1":"1 46078U 20055BD  21275.74177223 -.00014914  00000-0 -98458-3 0  9995","CLASSIFICATION_TYPE":"U","CENTER_NAME":"EARTH","OBJECT_NAME":"STARLINK-1563","RA_OF_ASC_NODE":"164.3646","ELEMENT_SET_NO":"999","ARG_OF_PERICENTER":"72.9901","MEAN_MOTION_DOT":"-0.00014914","RCS_SIZE":"LARGE","SITE":"AFETR","MEAN_MOTION_DDOT":"0.0000000000000","APOAPSIS":"548.391","EPOCH":"2021-10-02T17:48:09.120672","MEAN_ELEMENT_THEORY":"SGP4","MEAN_MOTION":"15.06393072","PERIOD":"95.593","TIME_SYSTEM":"UTC","REV_AT_EPOCH":"6526","ECCENTRICITY":"0.00016690","EPHEMERIS_TYPE":"0","MEAN_ANOMALY":"287.1270","NORAD_CAT_ID":"46078","INCLINATION":"53.0536","OBJECT_TYPE":"PAYLOAD","OBJECT_ID":"2020-055BD","GP_ID":"186051383","FILE":"3141323","SEMIMAJOR_AXIS":"6925.370","COUNTRY_CODE":"US","LAUNCH_DATE":"2020-08-07","REF_FRAME":"TEME"}];
